satname,norad_id,inclination_deg,eccentricity,mean_motion_rev_per_day,perigee_km,apogee_km,l1,l2
STARLINK-1297,45395,53.0513,0.0002937,15.47953485,420.7162324547353,424.71105212201564,1 45395U 20019AM  26036.85586100  .00085139  00000+0  15958-2 0  9993,2 45395  53.0513 283.6681 0002937 117.6523 242.4782 15.47953485324475
STARLINK-1307,45397,53.056,0.0001426,15.45882417,427.8158305732795,429.75716515486965,1 45397U 20019AP  26036.67750832  .00030513  00000+0  62427-3 0  9990,2 45397  53.0560 284.0715 0001426 127.4828 232.6308 15.45882417325099
STARLINK-1255,45399,53.0444,0.000731,15.45924237,423.6879663802729,433.6395090588185,1 45399U 20019AR  26036.91670139  .00114709  00000+0  22926-2 0  9999,2 45399  53.0444 254.9571 0007310 130.2896  92.8397 15.45924237  5897
STARLINK-1260,45404,53.1538,0.000105,15.29359009,477.00740182001664,478.4471333162064,1 45404U 20019AW  26036.69328759  .00010749  00000+0  38426-3 0  9991,2 45404  53.1538 277.8568 0001050  99.3366 260.7753 15.29359009325079
STARLINK-1263,45405,53.1596,0.0001292,15.29362402,476.8313510605685,478.60290376709236,1 45405U 20019AX  26036.81109166  .00002668  00000+0  10475-3 0  9990,2 45405  53.1596 277.3363 0001292  33.1430 326.9651 15.29362402325093
STARLINK-1265,45406,53.1544,0.0001059,15.29353116,477.0188412985417,478.4709170805545,1 45406U 20019AY  26036.69469073 -.00004069  00000+0 -12878-3 0  9991,2 45406  53.1544 277.9397 0001059  76.6234 283.4885 15.29353116325071
STARLINK-1278,45408,53.0483,0.0005481,15.49533565,414.3645657971192,421.8145893714682,1 45408U 20019BA  26036.85263677  .00100074  00000+0  17695-2 0  9995,2 45408  53.0483 283.7636 0005481  91.0571 269.1065 15.49533565325018
STARLINK-1296,45412,53.1586,8.44e-05,15.30207435,474.6144488983555,475.7712909804013,1 45412U 20019BE  26036.82095671  .00199039  00000+0  65528-2 0  9991,2 45412  53.1586 277.2724 0000844  99.4533 260.6563 15.30207435325093
STARLINK-1298,45413,53.045,0.0005507,15.80523438,325.265790175672,332.6529861375875,1 45413U 20019BF  26036.91670139  .00357734  00000+0  17690-2 0  9995,2 45413  53.0450 215.2389 0005507 203.4206 289.6837 15.80523438  5962
STARLINK-1309,45414,53.0698,0.0001052,15.4620684,427.11833014259355,428.55030650796925,1 45414U 20019BG  26036.91670139  .01531667  00000+0  27646-1 0  9997,2 45414  53.0698 276.3662 0001052  69.3802 180.5215 15.46206840  5833
STARLINK-1316,45415,53.1596,0.0001341,15.30187492,474.3333767864124,476.17145582786543,1 45415U 20019BH  26035.95185849 -.00001935  00000+0 -53229-4 0  9990,2 45415  53.1596 281.3612 0001341 104.7111 255.4039 15.30187492324981
STARLINK-1318,45416,53.0361,0.0005088,15.89394193,300.58041173907714,307.38013427608985,1 45416U 20019BJ  26036.91670139  .00481021  00000+0  15325-2 0  9998,2 45416  53.0361 201.7146 0005088 265.0434 271.7568 15.89394193  5986
STARLINK-1286,45417,53.05,0.0002247,15.48485106,419.6291875209836,422.6847902395866,1 45417U 20019BK  26036.68111751  .00048318  00000+0  89681-3 0  9998,2 45417  53.0500 284.2291 0002247  74.1302 285.9952 15.48485106325266
STARLINK-1308,45419,53.0553,0.00021,15.42414913,437.5528499279244,440.4160409350061,1 45419U 20019BM  26036.75869177  .00029161  00000+0  67121-3 0  9990,2 45419  53.0553 304.5177 0002100 109.6588 250.4643 15.42414913324730
STARLINK-1329,45531,53.0525,0.000783,15.49637595,412.46420486970146,423.10661936707857,1 45531U 20025A   26036.91670139  .00198504  00000+0  34440-2 0  9993,2 45531  53.0525 234.4738 0007830 143.7559 239.1914 15.49637595  5944
STARLINK-1338,45532,53.0523,0.0005266,15.48274726,418.1920690159668,425.3537341243009,1 45532U 20025B   26036.91670139  .00161503  00000+0  29561-2 0  9991,2 45532  53.0523 237.5590 0005266 154.5138  33.9290 15.48274726  5834
STARLINK-1350,45535,53.0726,0.0001226,15.35226509,459.4093974718817,461.0861694207824,1 45535U 20025E   26036.64024991  .00020210  00000+0  59194-3 0  9998,2 45535  53.0726 183.5572 0001226 109.1481 250.9654 15.35226509321233
STARLINK-1362,45538,53.1302,0.0001996,15.23553537,493.760415356669,496.50422446917855,1 45538U 20025H   26036.91670139  .01790482  00000+0  67415-1 0  9991,2 45538  53.1302 248.4312 0001996 102.3990 359.0443 15.23553537  5736
STARLINK-1368,45540,53.1163,0.0002301,15.20711748,502.10897048691004,505.27598841335384,1 45540U 20025K   26036.91670139  .00828404  00000+0  34699-1 0  9997,2 45540  53.1163 248.6033 0002301  88.4607  47.6565 15.20711748  5839
STARLINK-1371,45542,53.0514,0.0005142,15.42952531,433.8962567354047,440.90535581537915,1 45542U 20025M   26036.91670139  .00138142  00000+0  30440-2 0  9993,2 45542  53.0514 240.6487 0005142 149.1677 227.2143 15.42952531  5865
STARLINK-1372,45543,53.1385,0.0001902,15.25803091,487.06895320594595,489.68097435696836,1 45543U 20025N   26036.91670139  .01489857  00000+0  52573-1 0  9997,2 45543  53.1385 248.5625 0001902 100.4934  16.7994 15.25803091  5435
STARLINK-1373,45544,53.0502,0.0004631,15.44521645,429.62984887524635,435.9381238928345,1 45544U 20025P   26036.79733714  .00125341  00000+0  26248-2 0  9998,2 45544  53.0502 241.4740 0004631 182.4507 177.6476 15.44521645320406
STARLINK-1294,45551,53.0333,0.0007479,15.87072933,305.49178830290293,315.49664287518044,1 45551U 20025W   26036.91670139  .00373255  00000+0  13500-2 0  9997,2 45551  53.0333 137.6157 0007479 342.4233 339.5263 15.87072933  5985
STARLINK-1327,45555,53.0509,0.0001536,15.47652852,422.5495822032317,424.6390740672341,1 45555U 20025AA  26036.91670139  .00199677  00000+0  37156-2 0  9998,2 45555  53.0509 219.2779 0001536 212.7579 347.9499 15.47652852  5929
STARLINK-1356,45564,53.0537,0.0001376,15.4044886,443.8447752761167,445.7224430277547,1 45564U 20025AK  26036.79618642  .00122877  00000+0  29508-2 0  9995,2 45564  53.0537 225.2482 0001376 192.6443 167.4526 15.40448860320624
STARLINK-1357,45565,53.0556,0.0002027,15.48977369,418.33844981290895,421.0942995710084,1 45565U 20025AL  26036.91670139  .00167219  00000+0  29850-2 0  9998,2 45565  53.0556 190.9623 0002027 182.6273 232.4536 15.48977369  5842
STARLINK-1361,45567,53.0539,8.88e-05,15.41309799,441.63697538421,442.8482748056276,1 45567U 20025AN  26036.91670139  .00162478  00000+0  37695-2 0  9998,2 45567  53.0539 225.1434 0000888 154.0929 181.0807 15.41309799  5748
STARLINK-1363,45568,53.0461,0.0003633,15.68037625,362.0670943736077,366.9663065523646,1 45568U 20025AP  26036.91670139  .00209529  00000+0  18107-2 0  9995,2 45568  53.0461 195.4718 0003633 318.7176 356.3523 15.68037625  5973
STARLINK-1366,45569,53.0466,0.0003458,15.67783489,362.91347039388074,367.5771936146957,1 45569U 20025AQ  26036.91670139  .00208877  00000+0  18241-2 0  9990,2 45569  53.0466 196.1203 0003458 308.8929 341.6781 15.67783489  5975
STARLINK-1376,45570,53.1596,0.000129,15.29351212,476.8661599475745,478.63497894049215,1 45570U 20025AR  26035.84793469 -.00001356  00000+0 -34670-4 0  9996,2 45570  53.1596 230.1523 0001290  90.6789 269.4359 15.29351212320474
STARLINK-1320,45572,53.0504,0.0006376,15.61905215,377.8436475959288,386.4643706907882,1 45572U 20025AT  26036.91670139  .00136071  00000+0  15152-2 0  9998,2 45572  53.0504 141.7670 0006376 282.9160 248.5941 15.61905215  5876
STARLINK-1321,45573,53.052,0.0002768,15.42590108,436.5814433704236,440.35511605327156,1 45573U 20025AU  26036.68465650  .00159494  00000+0  35470-2 0  9992,2 45573  53.0520 211.0326 0002768 169.2930 190.8134 15.42590108320511
STARLINK-1331,45578,53.0555,0.0001213,15.40329175,444.309372924522,445.9646992056705,1 45578U 20025AZ  26036.91670139  .01333263  00000+0  29706-1 0  9996,2 45578  53.0555 216.5975 0001213  74.0967  92.5146 15.40329175  5581
STARLINK-1333,45580,53.1593,0.0001115,15.30198091,474.4566199638675,475.98491874643423,1 45580U 20025BB  26036.75443258  .00008647  00000+0  30376-3 0  9992,2 45580  53.1593 226.1436 0001115 101.2468 258.8658 15.30198091320615
STARLINK-1335,45581,53.0546,0.0001647,15.06398394,546.0758743831711,548.3570858195171,1 45581U 20025BC  26036.75061975  .00001417  00000+0  11399-3 0  9997,2 45581  53.0546 219.9982 0001647  96.1506 263.9671 15.06398394320695
STARLINK-1337,45582,53.0552,0.0001106,15.50884722,413.3904531513954,414.8929051952282,1 45582U 20025BD  26036.91670139  .01263234  00000+0  19442-1 0  9997,2 45582  53.0552 215.4213 0001106  76.0345 149.5663 15.50884722  5839
STARLINK-1347,45586,53.0493,0.0003168,15.47632691,421.49859154557817,425.80820594222314,1 45586U 20025BH  26036.78357645  .00120495  00000+0  22699-2 0  9999,2 45586  53.0493 182.8097 0003168 241.2127 118.8562 15.47632691321210
STARLINK-1364,45589,53.0537,0.0001871,15.43933169,433.2399016495401,435.78919585908443,1 45589U 20025BL  26036.91670139  .00232797  00000+0  48975-2 0  9997,2 45589  53.0537 214.8995 0001871 264.3258 209.4814 15.43933169  5839
STARLINK-1365,45590,53.054,0.0001141,15.42339777,438.4279849005743,439.9837025375109,1 45590U 20025BM  26036.81136948  .00011695  00000+0  27611-3 0  9990,2 45590  53.0540 245.0075 0001141 153.0939 207.0125 15.42339777320361
STARLINK-1443,45660,53.0555,0.0001117,15.06397403,546.4459550576839,547.9930797036668,1 45660U 20035D   26036.64464483  .00000188  00000+0  31508-4 0  9994,2 45660  53.0555 210.4735 0001117  82.7519 277.3596 15.06397403313903
STARLINK-1446,45663,53.0243,0.0003392,15.41446258,439.5267595679361,444.1534320297251,1 45663U 20035G   26036.73160830  .00030304  00000+0  71980-3 0  9996,2 45663  53.0243 151.0148 0003392 156.8877 203.2280 15.41446258314748
STARLINK-1448,45665,53.0535,0.0002093,15.45974031,427.092944783265,429.94221038944306,1 45665U 20035J   26036.91670139  .00219986  00000+0  43252-2 0  9991,2 45665  53.0535 204.9689 0002093 339.8191  71.5605 15.45974031  5788
STARLINK-1451,45668,53.0535,0.000248,15.0829333,539.6987962644007,543.1308939795808,1 45668U 20035M   26036.62833991  .00040531  00000+0  25881-2 0  9995,2 45668  53.0535 210.6178 0002480 149.5053 210.6082 15.08293330313907
